QIANFAN-25              
1 61558U 24185G   25277.82495072  .00000670  00000+0  40188-3 0  9991
2 61558  88.9746  85.9870 0009700 150.5984 209.5746 14.05811203 59826
QIANFAN-26              
1 61559U 24185H   25277.82775704  .00000476  00000+0  46354-3 0  9990
2 61559  88.9748  87.1878 0004691 201.9703 158.1262 13.77755044 59184
QIANFAN-27              
1 61560U 24185J   25277.83159088  .00001207  00000+0  48835-3 0  9993
2 61560  88.9746  85.0215 0009174 143.2047 216.9779 14.27201374 60339
QIANFAN-28              
1 61561U 24185K   25277.84555122  .00001694  00000+0  67969-3 0  9993
2 61561  88.9762  85.0178 0008260 142.3641 217.8133 14.27817334 60345
QIANFAN-29              
1 61562U 24185L   25277.85982752  .00000289  00000+0  42978-3 0  9990
2 61562  88.9724  88.4280 0008433 246.6422 113.3842 13.50975876 58493
QIANFAN-30              
1 61563U 24185M   25277.85667983  .00000279  00000+0  41991-3 0  9990
2 61563  88.9744  87.9272 0006165 225.4625 134.6022 13.49953453 58773
QIANFAN-31              
1 61564U 24185N   25277.86091384  .00000301  00000+0  40079-3 0  9990
2 61564  88.9729  87.8377 0005832 220.8007 139.2712 13.57926172 58814
QIANFAN-32              
1 61565U 24185P   25277.86326823  .00000277  00000+0  41298-3 0  9996
2 61565  88.9787  88.0398 0007560 259.4229 100.6071 13.50705124 58746
